NORAD_CAT_ID,OBJECT_NAME,OBJECT_TYPE,EPOCH,MEAN_MOTION,ECCENTRICITY,INCLINATION,RA_OF_ASC_NODE,ARG_OF_PERICENTER,MEAN_ANOMALY,BSTAR,MEAN_MOTION_DOT,MEAN_MOTION_DDOT,TLE_LINE0,TLE_LINE1,TLE_LINE2,SEMIMAJOR_AXIS,PERIOD,APOGEE,PERIGEE,DECAYED
55945.0,STARLINK-5925,PAYLOAD,2023-08-30 16:21:18,14.98331803,0.0002989,69.9983,89.1086,270.8355,89.2462,2.4003e-05,1.93e-06,0.0,0 STARLINK-5925,1 55945U 23037AH  23242.68145875  .00000193  00000-0  24003-4 0  9996,2 55945  69.9983  89.1086 0002989 270.8355  89.2462 14.98331803 25877,6950.187,96.107,574.13,569.975,0.0
55945.0,STARLINK-5925,PAYLOAD,2023-08-31 00:21:58,14.98332983,0.0002979,69.9983,88.2668,271.1354,88.9464,3.3624e-05,3.08e-06,0.0,0 STARLINK-5925,1 55945U 23037AH  23243.01525713  .00000308  00000-0  33624-4 0  9994,2 55945  69.9983  88.2668 0002979 271.1354  88.9464 14.98332983 26267,6950.184,96.107,574.119,569.978,0.0
55945.0,STARLINK-5925,PAYLOAD,2023-09-01 00:23:59,14.98325598,0.0002942,69.9983,85.7414,270.5524,89.5298,-3.8052e-05,-5.47e-06,0.0,0 STARLINK-5925,1 55945U 23037AH  23244.01666388 -.00000547  00000-0 -38052-4 0  9996,2 55945  69.9983  85.7414 0002942 270.5524  89.5298 14.98325598 26413,6950.207,96.107,574.116,570.027,0.0
55945.0,STARLINK-5925,PAYLOAD,2023-09-01 06:48:31,14.98330019,0.0002876,69.9984,85.0677,271.0312,89.0517,-1.0427e-05,-2.17e-06,0.0,0 STARLINK-5925,1 55945U 23037AH  23244.28370089 -.00000217  00000-0 -10427-4 0  9995,2 55945  69.9984  85.0677 0002876 271.0312  89.0517 14.98330019 26115,6950.193,96.107,574.057,570.059,0.0
55945.0,STARLINK-5925,PAYLOAD,2023-09-01 19:37:35,14.98335112,0.0003175,69.9977,83.7208,269.4635,90.616,6.8738e-06,-1.1e-07,0.0,0 STARLINK-5925,1 55945U 23037AH  23244.81777518 -.00000011  00000-0  68738-5 0  9992,2 55945  69.9977  83.7208 0003175 269.4635  90.6160 14.98335112 26531,6950.177,96.107,574.249,569.835,0.0
55945.0,STARLINK-5925,PAYLOAD,2023-09-02 13:15:04,14.98328797,0.0003137,69.9979,81.8685,269.1318,90.9482,-3.7177e-05,-5.37e-06,0.0,0 STARLINK-5925,1 55945U 23037AH  23245.55214027 -.00000537  00000-0 -37177-4 0  9991,2 55945  69.9979  81.8685 0003137 269.1318  90.9482 14.98328797 26300,6950.197,96.107,574.242,569.881,0.0
55945.0,STARLINK-5925,PAYLOAD,2023-09-02 16:27:21,14.98328464,0.0003125,69.998,81.5318,269.2309,90.8492,-3.9028e-05,-5.59e-06,0.0,0 STARLINK-5925,1 55945U 23037AH  23245.68566052 -.00000559  00000-0 -39028-4 0  9994,2 55945  69.9980  81.5318 0003125 269.2309  90.8492 14.98328464 26660,6950.198,96.107,574.235,569.891,0.0
55945.0,STARLINK-5925,PAYLOAD,2023-09-02 19:39:37,14.98328093,0.000318,69.999,81.1963,270.5784,89.5011,-2.5968e-05,-4.03e-06,0.0,0 STARLINK-5925,1 55945U 23037AH  23245.81918015 -.00000403  00000-0 -25968-4 0  9995,2 55945  69.9990  81.1963 0003180 270.5784  89.5011 14.98328093 26341,6950.199,96.107,574.274,569.854,0.0
55945.0,STARLINK-5925,PAYLOAD,2023-09-03 11:40:57,14.98329461,0.000316,69.9993,79.513,270.7838,89.2959,-7.8523e-06,-1.87e-06,0.0,0 STARLINK-5925,1 55945U 23037AH  23246.48677892 -.00000187  00000-0 -78523-5 0  9999,2 55945  69.9993  79.5130 0003160 270.7838  89.2959 14.98329461 26440,6950.195,96.107,574.256,569.863,0.0
55945.0,STARLINK-5925,PAYLOAD,2023-09-03 22:53:53,14.98332065,0.0003152,69.9993,78.3349,271.36,88.7198,-7.3205e-06,-1.8e-06,0.0,0 STARLINK-5925,1 55945U 23037AH  23246.95409718 -.00000180  00000-0 -73205-5 0  9996,2 55945  69.9993  78.3349 0003152 271.3600  88.7198 14.98332065 26852,6950.187,96.107,574.242,569.861,0.0
55945.0,STARLINK-5925,PAYLOAD,2023-09-04 19:43:38,14.98351446,0.0002613,69.9997,76.1465,269.7704,90.3156,-0.00036866,-4.491e-05,0.0,0 STARLINK-5925,1 55945U 23037AH  23247.82197443 -.00004491  00000-0 -36866-3 0  9991,2 55945  69.9997  76.1465 0002613 269.7704  90.3156 14.98351446 26989,6950.127,96.106,573.808,570.176,0.0
55945.0,STARLINK-5925,PAYLOAD,2023-09-04 22:55:55,14.98327089,0.0002794,69.9997,75.8097,264.9146,95.1694,5.1988e-05,5.27e-06,0.0,0 STARLINK-5925,1 55945U 23037AH  23247.95549848  .00000527  00000-0  51988-4 0  9992,2 55945  69.9997  75.8097 0002794 264.9146  95.1694 14.98327089 27003,6950.202,96.107,574.009,570.125,0.0
55945.0,STARLINK-5925,PAYLOAD,2023-09-05 05:20:27,14.98337358,0.0003169,69.9995,75.1364,273.0866,86.993,-0.00011614,-1.479e-05,0.0,0 STARLINK-5925,1 55945U 23037AH  23248.22253553 -.00001479  00000-0 -11614-3 0  9998,2 55945  69.9995  75.1364 0003169 273.0866  86.9930 14.98337358 26705,6950.17,96.107,574.238,569.833,0.0
55945.0,STARLINK-5925,PAYLOAD,2023-09-05 22:57:55,14.98330108,0.0002983,69.9998,73.2848,273.5471,86.5347,5.9268e-05,6.14e-06,0.0,0 STARLINK-5925,1 55945U 23037AH  23248.95689591  .00000614  00000-0  59268-4 0  9999,2 55945  69.9998  73.2848 0002983 273.5471  86.5347 14.98330108 27158,6950.193,96.107,574.131,569.984,0.0
55945.0,STARLINK-5925,PAYLOAD,2023-09-06 05:22:27,14.98376767,0.0003269,69.9997,72.6114,272.9883,87.0902,-0.00077765,-9.371e-05,0.0,0 STARLINK-5925,1 55945U 23037AH  23249.22392500 -.00009371  00000-0 -77765-3 0  9993,2 55945  69.9997  72.6114 0003269 272.9883  87.0902 14.98376767 27192,6950.048,96.104,574.185,569.641,0.0
55945.0,STARLINK-5925,PAYLOAD,2023-09-07 11:49:01,14.98329879,0.0003002,70.0,69.4134,267.6822,92.3994,-3.063e-05,-4.58e-06,0.0,0 STARLINK-5925,1 55945U 23037AH  23250.49237728 -.00000458  00000-0 -30630-4 0  9992,2 55945  70.0000  69.4134 0003002 267.6822  92.3994 14.98329879 27041,6950.193,96.107,574.145,569.972,0.0
55945.0,STARLINK-5925,PAYLOAD,2023-09-07 21:25:49,14.98328565,0.0002896,70.0003,68.4037,266.6985,93.3843,-2.5582e-05,-3.98e-06,0.0,0 STARLINK-5925,1 55945U 23037AH  23250.89293807 -.00000398  00000-0 -25582-4 0  9999,2 55945  70.0003  68.4037 0002896 266.6985  93.3843 14.98328565 27106,6950.197,96.107,574.075,570.05,0.0
55945.0,STARLINK-5925,PAYLOAD,2023-09-08 13:27:10,14.98330946,0.0003186,69.9989,66.7191,269.1581,90.9213,3.6505e-05,3.43e-06,0.0,0 STARLINK-5925,1 55945U 23037AH  23251.56053427  .00000343  00000-0  36505-4 0  9991,2 55945  69.9989  66.7191 0003186 269.1581  90.9213 14.98330946 27202,6950.19,96.107,574.269,569.841,0.0
55945.0,STARLINK-5925,PAYLOAD,2023-09-08 18:15:34,14.98330549,0.0003192,69.9998,66.2149,270.706,89.3733,3.9777e-05,3.82e-06,0.0,0 STARLINK-5925,1 55945U 23037AH  23251.76081436  .00000382  00000-0  39777-4 0  9991,2 55945  69.9998  66.2149 0003192 270.7060  89.3733 14.98330549 27575,6950.191,96.107,574.275,569.838,0.0
55945.0,STARLINK-5925,PAYLOAD,2023-09-09 13:29:11,14.98324813,0.0003144,69.9999,64.1951,271.0141,89.0657,8.1097e-05,8.75e-06,0.0,0 STARLINK-5925,1 55945U 23037AH  23252.56193581  .00000875  00000-0  81097-4 0  9994,2 55945  69.9999  64.1951 0003144 271.0141  89.0657 14.98324813 27350,6950.209,96.107,574.259,569.889,0.0
55945.0,STARLINK-5925,PAYLOAD,2023-09-09 18:17:35,14.98328732,0.0003126,70.0001,63.6901,270.2814,89.7987,3.6197e-05,3.39e-06,0.0,0 STARLINK-5925,1 55945U 23037AH  23252.76221498  .00000339  00000-0  36197-4 0  9991,2 55945  70.0001  63.6901 0003126 270.2814  89.7987 14.98328732 27722,6950.197,96.107,574.234,569.889,0.0
55945.0,STARLINK-5925,PAYLOAD,2023-09-10 13:31:12,14.98331545,0.000307,70.0004,61.6705,270.874,89.2067,-1.6984e-05,-2.96e-06,0.0,0 STARLINK-5925,1 55945U 23037AH  23253.56333370 -.00000296  00000-0 -16984-4 0  9999,2 55945  70.0004  61.6705 0003070 270.8740  89.2067 14.98331545 27503,6950.188,96.107,574.187,569.919,0.0
55945.0,STARLINK-5925,PAYLOAD,2023-09-10 19:55:44,14.98332021,0.0003054,70.0005,60.9969,270.3046,89.7763,-1.1668e-05,-2.32e-06,0.0,0 STARLINK-5925,1 55945U 23037AH  23253.83037286 -.00000232  00000-0 -11668-4 0  9990,2 55945  70.0005  60.9969 0003054 270.3046  89.7763 14.98332021 27883,6950.187,96.107,574.174,569.929,0.0
55945.0,STARLINK-5925,PAYLOAD,2023-09-11 13:33:12,14.98330255,0.0002984,70.0007,59.1458,267.515,92.5667,3.9176e-06,-4.6e-07,0.0,0 STARLINK-5925,1 55945U 23037AH  23254.56473230 -.00000046  00000-0  39176-5 0  9991,2 55945  70.0007  59.1458 0002984 267.5150  92.5667 14.98330255 27650,6950.192,96.107,574.131,569.983,0.0
55945.0,STARLINK-5925,PAYLOAD,2023-09-11 19:57:45,14.98326851,0.0002897,70.0007,58.4729,266.1586,93.9242,8.3647e-05,9.05e-06,0.0,0 STARLINK-5925,1 55945U 23037AH  23254.83177233  .00000905  00000-0  83647-4 0  9999,2 55945  70.0007  58.4729 0002897 266.1586  93.9242 14.98326851 28038,6950.203,96.107,574.081,570.054,0.0
55945.0,STARLINK-5925,PAYLOAD,2023-09-12 13:35:13,14.98328809,0.000297,70.0008,56.6213,266.2333,93.8487,-1.2542e-05,-2.43e-06,0.0,0 STARLINK-5925,1 55945U 23037AH  23255.56613287 -.00000243  00000-0 -12542-4 0  9997,2 55945  70.0008  56.6213 0002970 266.2333  93.8487 14.98328809 27809,6950.197,96.107,574.126,569.997,0.0
55945.0,STARLINK-5925,PAYLOAD,2023-09-12 19:59:46,14.98330076,0.0002969,70.0008,55.9479,266.1572,93.9247,3.7661e-07,-8.8e-07,0.0,0 STARLINK-5925,1 55945U 23037AH  23255.83317193 -.00000088  00000-0  37661-6 0  9991,2 55945  70.0008  55.9479 0002969 266.1572  93.9247 14.98330076 27845,6950.193,96.107,574.121,569.994,0.0
55945.0,STARLINK-5925,PAYLOAD,2023-09-13 13:37:14,14.98333908,0.0003032,70.0007,54.0959,270.2433,89.8379,2.7599e-05,2.36e-06,0.0,0 STARLINK-5925,1 55945U 23037AH  23256.56752736  .00000236  00000-0  27599-4 0  9999,2 55945  70.0007  54.0959 0003032 270.2433  89.8379 14.98333908 27950,6950.181,96.107,574.153,569.939,0.0
55945.0,STARLINK-5925,PAYLOAD,2023-09-13 18:25:38,14.98335915,0.0003022,70.0007,53.5908,270.4479,89.6333,4.9731e-05,5.01e-06,0.0,0 STARLINK-5925,1 55945U 23037AH  23256.76780488  .00000501  00000-0  49731-4 0  9993,2 55945  70.0007  53.5908 0003022 270.4479  89.6333 14.98335915 28329,6950.175,96.107,574.14,569.939,0.0
55945.0,STARLINK-5925,PAYLOAD,2023-09-13 21:37:54,14.98335553,0.0003118,70.0006,53.254,271.4466,88.6336,6.0817e-05,6.33e-06,0.0,0 STARLINK-5925,1 55945U 23037AH  23256.90132422  .00000633  00000-0  60817-4 0  9992,2 55945  70.0006  53.2540 0003118 271.4466  88.6336 14.98335553 28005,6950.176,96.107,574.208,569.874,0.0
